INTELSAT 1R (IS-1R)     
1 26608U 00072A   19062.78660506 -.00000153  00000-0  00000+0 0  9996
2 26608   1.6322  89.4729 0000300 157.1431 354.9009  1.00272033 66956
ANIK F1                 
1 26624U 00076A   19062.68585328 -.00000090  00000-0  00000+0 0  9995
2 26624   0.0188 146.8259 0000921 262.6657 251.2494  1.00272118 67024
ASTRA 2D                
1 26638U 00081A   19062.78015531  .00000017  00000-0  00000+0 0  9999
2 26638   4.8584  67.1192 0002218 258.8355 121.3454  1.00269938 66696
AMC-8 (GE-8)            
1 26639U 00081B   19063.11037206  .00000090  00000-0  00000+0 0  9992
2 26639   0.0323 278.4665 0002448  22.5385 121.2766  1.00269213 66581
SKYNET 4F               
1 26695U 01005B   19062.77230407 -.00000258  00000-0  00000+0 0  9997
2 26695   9.5470  32.4898 0003155 324.5203  48.2496  1.00270587 66186
USA 157 (MILSTAR-2 2)   
1 26715U 01009A   19063.19493147 -.00000373  00000-0  00000+0 0  9991
2 26715   8.8948  32.8396 0001849 326.7023 343.2922  1.00276070  4941
EUTELSAT 33C            
1 26719U 01011A   19063.47048192  .00000063  00000-0  00000+0 0  9990
2 26719   0.8919  90.8456 0004912 259.2350 208.3606  1.00274879 65888
INTELSAT 10 (IS-10)     
1 26766U 01019A   19062.78861719  .00000110  00000-0  00000+0 0  9994
2 26766   2.8458  81.9612 0001309 226.4455 184.2080  1.00272357 65230
INTELSAT 901 (IS-901)   
1 26824U 01024A   19062.84505883 -.00000229  00000-0  00000+0 0  9991
2 26824   0.8183  93.9111 0002748 258.0398  84.0611  1.00271356 64908
ASTRA 2C                
1 26853U 01025A   19063.20008759  .00000122  00000-0  00000+0 0  9996
2 26853   1.7549  88.8250 0002673 249.9372 278.6139  1.00270256 64882
USA 159 (DSP 21)        
1 26880U 01033A   19062.84017362 -.00000298  00000-0  00000+0 0  9999
2 26880  10.3187  33.5942 0001051 286.3661  90.3172  1.00554513  4922
INTELSAT 902 (IS-902)   
1 26900U 01039A   19062.86329115  .00000017  00000-0  00000-0 0  9991
2 26900   0.0240 117.5681 0002978 229.9390 186.5828  1.00271781 64021
EUTELSAT 12 WEST B      
1 26927U 01042A   19062.84846104 -.00000116  00000-0  00000+0 0  9994
2 26927   0.0382 346.7537 0006169   7.1833 100.3266  1.00272350 63838
DIRECTV 4S              
1 26985U 01052A   19062.59210698 -.00000129  00000-0  00000-0 0  9999
2 26985   0.0141 149.3942 0002448 198.1408 285.4829  1.00272464 24616
USA 164 (MILSTAR-2 3)   
1 27168U 02001A   19063.14177699  .00000095  00000-0  00000+0 0  9993
2 27168   8.2972  33.9282 0001726 316.5047 241.1828  1.00276567  4951
ECHOSTAR 7              
1 27378U 02006A   19063.50408274 -.00000015  00000-0  00000+0 0  9990
2 27378   0.0554 295.7068 0001219  29.4203 259.4756  1.00273197 62379
INTELSAT 904 (IS-904)   
1 27380U 02007A   19063.57760764  .00000132  00000-0  00000+0 0  9995
2 27380   0.3697  99.1381 0002713 205.7121 109.1773  1.00158797 62407
TDRS 9                  
1 27389U 02011A   19063.41779144 -.00000277  00000-0  00000+0 0  9995
2 27389   6.5222  71.9464 0013752 259.6142 303.9108  1.00083272 63743
JCSAT 2A                
1 27399U 02015A   19062.94985802 -.00000322  00000-0  00000+0 0  9998
2 27399   1.8335  88.7637 0006963 197.9853 352.5923  1.00269236 61923
ASTRA 3A                
1 27400U 02015B   19062.80466082 -.00000295  00000-0  00000-0 0  9990
2 27400   5.0027  65.8430 0002743 285.7943  52.3421  1.00272688 62020
INTELSAT 903 (IS-903)   
1 27403U 02016A   19062.84462265 -.00000239  00000-0  00000+0 0  9994
2 27403   1.2032  92.4542 0001816 305.3822  36.0253  1.00271597 61953
NSS-7                   
1 27414U 02019A   19062.84689078 -.00000171  00000-0  00000+0 0  9997
2 27414   3.2066  79.6520 0002562 262.5915 103.9346  1.00271324 61868
DIRECTV 5 (TEMPO 1)     
1 27426U 02023A   19063.47501819 -.00000070  00000-0  00000+0 0  9999
2 27426   0.0149 137.1982 0003270 225.6605 219.9440  1.00272688 61624
INTELSAT 905 (IS-905)   
1 27438U 02027A   19063.42032127 -.00000199  00000-0  00000+0 0  9994
2 27438   0.1882 102.4679 0002492 243.4260 302.7901  1.00272889 61277
EXPRESS-A4              
1 27441U 02029A   19062.85674551 -.00000259  00000-0  00000-0 0  9997
2 27441   7.0833  52.7981 0008302  73.8830 128.4668  1.00268183 61275
GALAXY 3C (G-3C)        
1 27445U 02030A   19063.16466086 -.00000166  00000-0  00000+0 0  9996
2 27445   0.0154 166.6941 0001508 155.1681 164.0107  1.00270619 61268
EUTELSAT 5 WEST A       
1 27460U 02035A   19063.35466135 -.00000057  00000-0  00000+0 0  9993
2 27460   0.0108  12.3569 0005603 339.4414 292.6972  1.00271483 61053
N-STAR C                
1 27461U 02035B   19063.36150550 -.00000323  00000-0  00000+0 0  9992
2 27461   5.7759  61.4569 0004143 332.5469  33.9570  1.00272521 60979
METEOSAT-8 (MSG-1)      
1 27509U 02040B   19063.74001116  .00000128  00000-0  00000+0 0  9998
2 27509   5.9113  55.9917 0001857 326.4413  87.7369  1.00280720 60561
INTELSAT 906 (IS-906)   
1 27513U 02041A   19063.15084955 -.00000000  00000-0  00000+0 0  9991
2 27513   0.0266 223.1127 0002476 138.4499 278.4924  1.00271657 60279
HISPASAT 1D             
1 27528U 02044A   19063.17271444 -.00000233  00000-0  00000+0 0  9991
2 27528   0.0414 341.5433 0005839  10.3519 201.7231  1.00267454 60250
TDRS 10                 
1 27566U 02055A   19062.82664780  .00000081  00000-0  00000+0 0  9995
2 27566   6.0988  55.7062 0011045 264.2737 327.7071  1.00273258 59533
NSS-6                   
1 27603U 02057A   19062.88111231 -.00000285  00000-0  00000+0 0  9990
2 27603   0.0115 122.9451 0002293 186.5193 264.0674  1.00272768 59398
NIMIQ 2                 
1 27632U 02062A   19063.47248834  .00000010  00000-0  00000+0 0  9999
2 27632   3.3161  78.8497 0001460 261.5412 228.5302  1.00270292 59189
INTELSAT 907 (IS-907)   
1 27683U 03007A   19063.48591149 -.00000217  00000-0  00000+0 0  9996
2 27683   0.0245 207.5297 0002566 143.9328 317.9003  1.00271289 58691
USA 167                 
1 27691U 03008A   19062.58320799  .00000045  00000-0  00000+0 0  9995
2 27691   5.7726  61.3416 0003721 304.5426 234.9721  1.00272364  4920
USA 169 (MILSTAR-2 4)   
1 27711U 03012A   19063.47309899 -.00000014  00000-0  00000+0 0  9997
2 27711   8.3680  47.9734 0002854 326.7897 197.4504  1.00273827  4958
GALAXY 12 (G-12)        
1 27715U 03013B   19063.23131898  .00000044  00000-0  00000+0 0  9990
2 27715   0.4047  96.5367 0002688 273.7683 105.6366  1.00272695 58311
ASIASAT 4               
1 27718U 03014A   19063.51160433  .00000139  00000-0  00000+0 0  9997
2 27718   0.0257 123.0121 0000490 214.7051  46.6114  1.00270668 58234
HELLAS-SAT 2            
1 27811U 03020A   19063.47126687 -.00000220  00000-0  00000+0 0  9998
2 27811   0.8244  98.1680 0002445 222.1384 297.1999  0.99837786 57643
THURAYA-2               
1 27825U 03026A   19062.93153846  .00000118  00000-0  00000-0 0  9992
2 27825   5.4663  31.4646 0004954 307.0220 202.2437  1.00274458 57643
OPTUS C1                
1 27831U 03028B   19062.95378362 -.00000165  00000-0  00000+0 0  9997
2 27831   0.3271 103.4451 0005599 247.2729 309.7418  1.00274017 57629
ECHOSTAR 12 (RAINBOW 1) 
1 27852U 03033A   19063.46397329 -.00000214  00000-0  00000+0 0  9992
2 27852   0.0508 295.4552 0001125  64.4494 242.6367  1.00273751 57267
GALAXY 23 (G-23)        
1 27854U 03034A   19062.68323619 -.00000002  00000-0  00000+0 0  9994
2 27854   0.0103 197.6787 0002934 145.6279 302.7925  1.00271404 61845
USA 170                 
1 27875U 03040A   19062.84244175 -.00000285  00000-0  00000+0 0  9994
2 27875   4.9561  66.8595 0001634 308.7154  46.4806  1.00267086  4920
GALAXY 13 (HORIZONS 1)  
1 27954U 03044A   19063.16167339  .00000033  00000-0  00000+0 0  9998
2 27954   0.0192 128.5945 0001557  74.4707 249.7383  1.00271022 56464
YAMAL 202               
1 28089U 03053A   19063.14788351  .00000104  00000-0  00000+0 0  9998
2 28089   0.0640 102.4676 0003461 198.9871 322.4036  1.00275835 55980
UFO 11 (USA 174)        
1 28117U 03057A   19063.70352258 -.00000113  00000-0  00000+0 0  9990
2 28117   5.5757  36.6344 0007617 294.4062 160.0698  1.00271919 55734
EXPRESS-AM22 (SESAT 2)  
1 28134U 03060A   19063.64765808  .00000085  00000-0  00000+0 0  9992
2 28134   1.8092  88.6206 0005473  74.4923 267.8716  0.99567303 55579
USA 176 (DSP 22)        
1 28158U 04004A   19063.49591994 -.00000224  00000-0  00000+0 0  9999
2 28158   8.5655  41.9210 0000638  10.0673  15.6935  1.00278333  4927
ABS-4 (MOBISAT-1)       
1 28184U 04007A   19063.15023888  .00000026  00000-0  00000+0 0  9995
2 28184   0.0196 230.4096 0002060 114.9339 291.3652  1.00274114 54886
EUTELSAT 7A             
1 28187U 04008A   19062.85229941  .00000032  00000-0  00000-0 0  9991
2 28187   0.0703  21.2317 0002864 320.8895 132.9886  1.00272012 54662
DIRECTV 7S              
1 28238U 04016A   19063.50408365 -.00000013  00000-0  00000+0 0  9998
2 28238   0.0230 138.3313 0002793 218.9509 227.0905  1.00270737 54367
AMC-11 (GE-11)          
1 28252U 04017A   19063.47091810  .00000055  00000-0  00000+0 0  9999
2 28252   0.0522 307.3584 0002662  50.6289 202.4537  1.00271652 54013
INTELSAT 10-02          
1 28358U 04022A   19062.85072916 -.00000026  00000-0  00000-0 0  9999
2 28358   0.0048 188.7478 0002617 189.4384  88.3868  1.00272834 53967
APSTAR 5 (TELSTAR 18)   
1 28364U 04024A   19062.79771616 -.00000309  00000-0  00000+0 0  9997
2 28364   0.3287  99.1903 0001254 229.9158 257.3276  1.00271767 53858
ANIK F2                 
1 28378U 04027A   19063.15184937 -.00000064  00000-0  00000+0 0  9998
2 28378   0.0263 132.2395 0000182 330.9219   2.0450  1.00269790 53669
AMC-15                  
1 28446U 04041A   19063.51340703 -.00000103  00000-0  00000+0 0  9999
2 28446   0.0549 306.9471 0002374  46.5179 248.2657  1.00272738 52676
AMC-16                  
1 28472U 04048A   19062.83397987 -.00000222  00000-0  00000+0 0  9997
2 28472   0.0543 300.9770 0002406  26.5768  48.9727  1.00272816 52123
